First Name;Last Name;Title;Client Name;Direct Phone;Main Phone;Cell Phone;Permanent Address 1;Permanent Address City;Permanent Address State;Permanent Address Zip;Primary E-mail;Skills;Contact Owner
Kaaaaaa;Zaaaaaa;President;The Za;;(323) 596-0000 Ext. 5510;;1625 W. Vaaaaaaa;New York;NY;90062;Kar@thesa.com;;someone@example.com
Abbbb;Mbbbbbbb;Project Manager;Co Co, Inc.;;(323) 295-0000;;1973 W. ;New York;NY;90062;A@CC.com;;someone@example.com
Accccc;Sccccc;;Co Co, Inc.;;(323) 295-0000;;1974 W.;New York;NY;90062;Al@cnc.com;;someone@example.com
Cddddd;Jdddddd;Office Manager;Co Co, Inc.;(323) 000-0000;0;;1975 W.;New York;NY;90062;C@Cnc.com;;someone@example.com
Seeeee;Ceeeee;CEO & President;Co Co, Inc.;;(323) 295-0000 Ext. 101;;1976 W.;New York;NY;90062;S@coco.com;;someone@example.com
Rffffffff;Fffffff;Executive VP HR;Ste Inc.;;(323) 296-0000;;1409 W. ;New York;NY;90062;R@st.org;;someone@example.com
Gggggg;Dgggggg;Assistant VP HR;Ste Inc.;;(323) 296-0000;;1410 W.;New York;NY;90062;G@st.org;;someone@example.com
Khhhhh;Rhhhhh;Treasurer;Ste Inc.;;(323) 296-0000;;1411 W.;New York;NY;90062;K@st.org;;someone@example.com
Aiiiiiiii;Eiiiiii;Data & Referral Clerk;T.H.E. C Inc.;;(323) 720-0000;;3834 S. W;New York;NY;90062;A@thec.org;;someone@example.com
Ljjjjjjjjjj;Rjjjjjjjjj;Billing Manager;T.H.E. C Inc.;;(323) 720-0000;;3835 S. W;New York;NY;90062;LR@thec.org;;someone@example.com
Tkkkkkkk;Kkkkkk;VP and CFO;T.H.E. C Inc.;;(323) 720-0000;;3836 S. W;New York;NY;90062;TK@thecl.org;;someone@example.com
Lllllllll;Mlllll;Director, Human Resources;T.H.E. C Inc.;;(323) 720-0000 Ext. 3235;;3837 S. W;New York;NY;90062;Lm@thecliorg;;someone@example.com
Gmmmm;Vmmmmm;Human Resources;T.H.E. C Inc.;;(323) 720-0000;;3838 S. W;New York;NY;90062;GV@thecli.org;;someone@example.com
Tnnnnnnn;Annnnn;Payroll & HR Generalist;Wi and He Ag;;(310) 394-0000;(323) 781-5078;4211 S. V;New York;NY;90062;bt2@gmail.com;Accounts Receivable, Accounts Receivable Clerk, ADP PCPW, AR Posting, AR Reconciliation, MAS90, REPORT SMITH;someone@example.com
Aooooo;Looooooo;Asst. to the CEO;To HeEv;;(323) 363-0000 Ext. 3053;;3834 S. W;Miami ;FL;90062;a@toHeEv.org;;someone@example.com
Mpppppp;Dppppppp;Community Relations & Education Manager;To HeEv;;(323) 363-0000 Ext. 3050;;3835 S. W;Miami ;FL;90062;md@toHeEv.org;;someone@example.com
Lqqqqq;Gqqqqqq;Database and Network Supervisor;To HeEv;;(323) 363-0000 Ext. 3113;;3836 S. W;Miami ;FL;90062;lg@toHeEv.org;;someone@example.com
Trrrrrrrr;Hrrrrrrr;Program Manager;To HeEv;;(323) 363-0000;;3837 S. W;Miami ;FL;90062;th@toHeEv.org;;someone@example.com
Cssssssss;Cssssssss;President;;;(323) 296-0000;;1409 W. Ve;Miami ;FL;90062;;;someone@example.com
Otttttt;Sttttttt;;Ste, Inc.;;(323) 296-0000;;1410 W. Ve;Miami ;FL;90062;hi@Ste, Inc..org;;someone@example.com
Ouuuuuu;Euuuuuuu;President & Founder;50th Program;;(323) 545-0000;;P.O. Box 62;Miami ;FL;90062;Ep@550thProgram.org;;someone@example.com
Jvvvvvvv;Dvvvvvv;First VP;50th Program;;(323) 545-0000;;P.O. Box 63;Miami ;FL;90062;da@@550thProgram.org;;someone@example.com
Cwwwww;Mwwwww;Second VP;50th Program;;(323) 545-0000;;P.O. Box 64;Miami ;FL;90062;mo@550thProgram.org;;someone@example.com
Rxxxxxx;Vxxxxxxx;;TEA Schools;;(323) 292-0000;;1701 Bro;Miami ;FL;90062;rv@TEASchools.org;;someone@example.com
Myyyyy;Byyyyyy;COO;TEA Schools;(323) 522-0000;(323) 292-0000;;1702 Bro;Miami ;FL;90062;mb@TEASchools.org;;someone@example.com
Kzzzzzzz;Hzzzzzz;General Manager;The ZaGr;;(323) 596-0000;;1625 W. Ve;Miami ;FL;90062;Ka@thezagr.com;;someone@example.com
